STARLETTE               
1 07646U 75010A   26063.12261641 -.00000134  00000+0  92076-5 0  9993
2 07646  49.8226 159.3051 0205546  75.9523 286.4125 13.82349061580001
LAGEOS 1                
1 08820U 76039A   26063.16699086 -.00000001  00000+0  00000+0 0  9995
2 08820 109.8184 143.3909 0044659 324.7708  54.3603  6.38664875906435
AJISAI (EGS)            
1 16908U 86061A   26063.18112558 -.00000075  00000+0  15966-3 0  9995
2 16908  50.0080 110.2871 0011252 272.8274 187.0364 12.44515547467310
COSMOS 1989 (ETALON 1)  
1 19751U 89001C   26062.61766039  .00000019  00000+0  00000+0 0  9993
2 19751  64.8836  75.8047 0023403 217.5732  97.6631  2.13156033289117
COSMOS 2024 (ETALON 2)  
1 20026U 89039C   26063.18779878 -.00000046  00000+0  00000+0 0  9990
2 20026  64.9977 314.1551 0020465 213.4075 318.7281  2.13204552286261
LAGEOS 2                
1 22195U 92070B   26063.18295781 -.00000009  00000+0  00000+0 0  9993
2 22195  52.6796 333.0220 0137776 141.4162  15.2959  6.47293323788620
STELLA                  
1 22824U 93061B   26063.18340346 -.00000004  00000+0  16738-4 0  9996
2 22824  98.7853 127.0021 0006435 173.0570 206.6071 14.27467403689793
LARETS                  
1 27944U 03042F   26063.12519054  .00000126  00000+0  33754-4 0  9993
2 27944  98.4005 223.1969 0012424   9.9044 350.2400 14.63846928197995
LARES                   
1 38077U 12006A   26063.16426126 -.00000013  00000+0  15739-3 0  9991
2 38077  69.4891 111.6380 0007563 156.3088 203.8288 12.54932251643891
LARES-2                 
1 53105U 22080A   26051.71998157 -.00000019  00000+0  00000+0 0  9996
2 53105  70.1780 345.2672 0005158   0.9590 359.1035  6.38965205 84226
